0 FENGYUN 1C DEB
1 36281U 99025DXJ 13281.27351972  .00002081  00000-0  27041-2 0  2817
2 36281 099.2429 093.0490 0331410 158.2882 327.6623 13.42501035248151
0 FENGYUN 1C DEB
1 36281U 99025DXJ 13282.31618177  .00002527  00000-0  32727-2 0  2829
2 36281 099.2427 094.0053 0331391 155.6858 326.8634 13.42508463248297
0 FENGYUN 1C DEB
1 36281U 99025DXJ 13285.73334615  .00002184  00000-0  28342-2 0  2838
2 36281 099.2423 097.1420 0331356 147.1760 282.1945 13.42522096248752
0 FENGYUN 1C DEB
1 36281U 99025DXJ 13286.94342146  .00002319  00000-0  30055-2 0  2845
2 36281 099.2423 098.2527 0331329 144.1626 010.5930 13.42526076248917
0 FENGYUN 1C DEB
1 36281U 99025DXJ 13288.27901740  .00002795  00000-0  36131-2 0  2854
2 36281 099.2420 099.4793 0331232 140.8466 345.6619 13.42533974249091
0 FENGYUN 1C DEB
1 36281U 99025DXJ 13289.45176646  .00002470  00000-0  31977-2 0  2868
2 36281 099.2417 100.5564 0331211 137.9336 253.7047 13.42539952249251
0 FENGYUN 1C DEB
1 36281U 99025DXJ 13292.73872839  .00002415  00000-0  31274-2 0  2870
2 36281 099.2429 103.5741 0331105 129.7424 300.1508 13.42554391249694
